IRIDIUM 57 [-]          
1 25273U 98019B   23301.81983948  .00000630  00000+0  21473-3 0  9993
2 25273  86.4007  35.3999 0002153  92.9206 267.2237 14.34958587339090
IRIDIUM 63 [-]          
1 25286U 98021B   23301.78890124  .00000575  00000+0  19350-3 0  9998
2 25286  86.3983 332.3805 0002360  88.7081 271.4386 14.35462359338118
IRIDIUM 69 [-]          
1 25319U 98026A   23301.83939262  .00000731  00000+0  22758-3 0  9993
2 25319  86.4009 347.4147 0002875 143.2277 216.9120 14.39637521337080
IRIDIUM 71 [-]          
1 25320U 98026B   23301.82199587  .00000636  00000+0  19590-3 0  9996
2 25320  86.3993 342.2493 0000602 164.7628 195.3590 14.39970188337590
IRIDIUM 73 [-]          
1 25344U 98032C   23301.92799739  .00000873  00000+0  21990-3 0  9995
2 25344  86.4369 299.9994 0002119 106.8107 253.3330 14.50092044343966
IRIDIUM 82 [-]          
1 25467U 98051A   23301.68535563  .00012686  00000+0  74021-3 0  9996
2 25467  86.4002  35.1369 0144853 351.0255   8.8390 15.03287382333487
IRIDIUM 2 [-]           
1 25527U 98066A   23301.88061815  .00053742  00000+0  12030-2 0  9994
2 25527  85.5157  90.0250 0005077 133.4039 226.7638 15.43238442371722
