<?xml version="1.0" encoding="UTF-8"?>
<ndm xmlns:xsi="http://www.w3.org/2001/XMLSchema-instance" xsi:noNamespaceSchemaLocation="https://sanaregistry.org/r/ndmxml_unqualified/ndmxml-2.0.0-master-2.0.xsd">
<omm id="CCSDS_OMM_VERS" version="2.0">
<header><CREATION_DATE/><ORIGINATOR/></header><body><segment><metadata><OBJECT_NAME>IRIDIUM 57 [-]</OBJECT_NAME><OBJECT_ID>1998-019B</OBJECT_ID><CENTER_NAME>EARTH</CENTER_NAME><REF_FRAME>TEME</REF_FRAME><TIME_SYSTEM>UTC</TIME_SYSTEM><MEAN_ELEMENT_THEORY>SGP4</MEAN_ELEMENT_THEORY></metadata><data><meanElements><EPOCH>2023-10-28T19:40:34.131072</EPOCH><MEAN_MOTION>14.34958587</MEAN_MOTION><ECCENTRICITY>.0002153</ECCENTRICITY><INCLINATION>86.4007</INCLINATION><RA_OF_ASC_NODE>35.3999</RA_OF_ASC_NODE><ARG_OF_PERICENTER>92.9206</ARG_OF_PERICENTER><MEAN_ANOMALY>267.2237</MEAN_ANOMALY></meanElements><tleParameters><EPHEMERIS_TYPE>0</EPHEMERIS_TYPE><CLASSIFICATION_TYPE>U</CLASSIFICATION_TYPE><NORAD_CAT_ID>25273</NORAD_CAT_ID><ELEMENT_SET_NO>999</ELEMENT_SET_NO><REV_AT_EPOCH>33909</REV_AT_EPOCH><BSTAR>.21473E-3</BSTAR><MEAN_MOTION_DOT>.63E-5</MEAN_MOTION_DOT><MEAN_MOTION_DDOT>0</MEAN_MOTION_DDOT></tleParameters></data></segment></body></omm>
<omm id="CCSDS_OMM_VERS" version="2.0">
<header><CREATION_DATE/><ORIGINATOR/></header><body><segment><metadata><OBJECT_NAME>IRIDIUM 63 [-]</OBJECT_NAME><OBJECT_ID>1998-021B</OBJECT_ID><CENTER_NAME>EARTH</CENTER_NAME><REF_FRAME>TEME</REF_FRAME><TIME_SYSTEM>UTC</TIME_SYSTEM><MEAN_ELEMENT_THEORY>SGP4</MEAN_ELEMENT_THEORY></metadata><data><meanElements><EPOCH>2023-10-28T18:56:01.067136</EPOCH><MEAN_MOTION>14.35462359</MEAN_MOTION><ECCENTRICITY>.000236</ECCENTRICITY><INCLINATION>86.3983</INCLINATION><RA_OF_ASC_NODE>332.3805</RA_OF_ASC_NODE><ARG_OF_PERICENTER>88.7081</ARG_OF_PERICENTER><MEAN_ANOMALY>271.4386</MEAN_ANOMALY></meanElements><tleParameters><EPHEMERIS_TYPE>0</EPHEMERIS_TYPE><CLASSIFICATION_TYPE>U</CLASSIFICATION_TYPE><NORAD_CAT_ID>25286</NORAD_CAT_ID><ELEMENT_SET_NO>999</ELEMENT_SET_NO><REV_AT_EPOCH>33811</REV_AT_EPOCH><BSTAR>.1935E-3</BSTAR><MEAN_MOTION_DOT>.575E-5</MEAN_MOTION_DOT><MEAN_MOTION_DDOT>0</MEAN_MOTION_DDOT></tleParameters></data></segment></body></omm>
<omm id="CCSDS_OMM_VERS" version="2.0">
<header><CREATION_DATE/><ORIGINATOR/></header><body><segment><metadata><OBJECT_NAME>IRIDIUM 69 [-]</OBJECT_NAME><OBJECT_ID>1998-026A</OBJECT_ID><CENTER_NAME>EARTH</CENTER_NAME><REF_FRAME>TEME</REF_FRAME><TIME_SYSTEM>UTC</TIME_SYSTEM><MEAN_ELEMENT_THEORY>SGP4</MEAN_ELEMENT_THEORY></metadata><data><meanElements><EPOCH>2023-10-28T20:08:43.522368</EPOCH><MEAN_MOTION>14.39637521</MEAN_MOTION><ECCENTRICITY>.0002875</ECCENTRICITY><INCLINATION>86.4009</INCLINATION><RA_OF_ASC_NODE>347.4147</RA_OF_ASC_NODE><ARG_OF_PERICENTER>143.2277</ARG_OF_PERICENTER><MEAN_ANOMALY>216.9120</MEAN_ANOMALY></meanElements><tleParameters><EPHEMERIS_TYPE>0</EPHEMERIS_TYPE><CLASSIFICATION_TYPE>U</CLASSIFICATION_TYPE><NORAD_CAT_ID>25319</NORAD_CAT_ID><ELEMENT_SET_NO>999</ELEMENT_SET_NO><REV_AT_EPOCH>33708</REV_AT_EPOCH><BSTAR>.22758E-3</BSTAR><MEAN_MOTION_DOT>.731E-5</MEAN_MOTION_DOT><MEAN_MOTION_DDOT>0</MEAN_MOTION_DDOT></tleParameters></data></segment></body></omm>
<omm id="CCSDS_OMM_VERS" version="2.0">
<header><CREATION_DATE/><ORIGINATOR/></header><body><segment><metadata><OBJECT_NAME>IRIDIUM 71 [-]</OBJECT_NAME><OBJECT_ID>1998-026B</OBJECT_ID><CENTER_NAME>EARTH</CENTER_NAME><REF_FRAME>TEME</REF_FRAME><TIME_SYSTEM>UTC</TIME_SYSTEM><MEAN_ELEMENT_THEORY>SGP4</MEAN_ELEMENT_THEORY></metadata><data><meanElements><EPOCH>2023-10-28T19:43:40.443168</EPOCH><MEAN_MOTION>14.39970188</MEAN_MOTION><ECCENTRICITY>.0000602</ECCENTRICITY><INCLINATION>86.3993</INCLINATION><RA_OF_ASC_NODE>342.2493</RA_OF_ASC_NODE><ARG_OF_PERICENTER>164.7628</ARG_OF_PERICENTER><MEAN_ANOMALY>195.3590</MEAN_ANOMALY></meanElements><tleParameters><EPHEMERIS_TYPE>0</EPHEMERIS_TYPE><CLASSIFICATION_TYPE>U</CLASSIFICATION_TYPE><NORAD_CAT_ID>25320</NORAD_CAT_ID><ELEMENT_SET_NO>999</ELEMENT_SET_NO><REV_AT_EPOCH>33759</REV_AT_EPOCH><BSTAR>.1959E-3</BSTAR><MEAN_MOTION_DOT>.636E-5</MEAN_MOTION_DOT><MEAN_MOTION_DDOT>0</MEAN_MOTION_DDOT></tleParameters></data></segment></body></omm>
<omm id="CCSDS_OMM_VERS" version="2.0">
<header><CREATION_DATE/><ORIGINATOR/></header><body><segment><metadata><OBJECT_NAME>IRIDIUM 73 [-]</OBJECT_NAME><OBJECT_ID>1998-032C</OBJECT_ID><CENTER_NAME>EARTH</CENTER_NAME><REF_FRAME>TEME</REF_FRAME><TIME_SYSTEM>UTC</TIME_SYSTEM><MEAN_ELEMENT_THEORY>SGP4</MEAN_ELEMENT_THEORY></metadata><data><meanElements><EPOCH>2023-10-28T22:16:18.974496</EPOCH><MEAN_MOTION>14.50092044</MEAN_MOTION><ECCENTRICITY>.0002119</ECCENTRICITY><INCLINATION>86.4369</INCLINATION><RA_OF_ASC_NODE>299.9994</RA_OF_ASC_NODE><ARG_OF_PERICENTER>106.8107</ARG_OF_PERICENTER><MEAN_ANOMALY>253.3330</MEAN_ANOMALY></meanElements><tleParameters><EPHEMERIS_TYPE>0</EPHEMERIS_TYPE><CLASSIFICATION_TYPE>U</CLASSIFICATION_TYPE><NORAD_CAT_ID>25344</NORAD_CAT_ID><ELEMENT_SET_NO>999</ELEMENT_SET_NO><REV_AT_EPOCH>34396</REV_AT_EPOCH><BSTAR>.2199E-3</BSTAR><MEAN_MOTION_DOT>.873E-5</MEAN_MOTION_DOT><MEAN_MOTION_DDOT>0</MEAN_MOTION_DDOT></tleParameters></data></segment></body></omm>
<omm id="CCSDS_OMM_VERS" version="2.0">
<header><CREATION_DATE/><ORIGINATOR/></header><body><segment><metadata><OBJECT_NAME>IRIDIUM 82 [-]</OBJECT_NAME><OBJECT_ID>1998-051A</OBJECT_ID><CENTER_NAME>EARTH</CENTER_NAME><REF_FRAME>TEME</REF_FRAME><TIME_SYSTEM>UTC</TIME_SYSTEM><MEAN_ELEMENT_THEORY>SGP4</MEAN_ELEMENT_THEORY></metadata><data><meanElements><EPOCH>2023-10-28T16:26:54.726432</EPOCH><MEAN_MOTION>15.03287382</MEAN_MOTION><ECCENTRICITY>.0144853</ECCENTRICITY><INCLINATION>86.4002</INCLINATION><RA_OF_ASC_NODE>35.1369</RA_OF_ASC_NODE><ARG_OF_PERICENTER>351.0255</ARG_OF_PERICENTER><MEAN_ANOMALY>8.8390</MEAN_ANOMALY></meanElements><tleParameters><EPHEMERIS_TYPE>0</EPHEMERIS_TYPE><CLASSIFICATION_TYPE>U</CLASSIFICATION_TYPE><NORAD_CAT_ID>25467</NORAD_CAT_ID><ELEMENT_SET_NO>999</ELEMENT_SET_NO><REV_AT_EPOCH>33348</REV_AT_EPOCH><BSTAR>.74021E-3</BSTAR><MEAN_MOTION_DOT>.12686E-3</MEAN_MOTION_DOT><MEAN_MOTION_DDOT>0</MEAN_MOTION_DDOT></tleParameters></data></segment></body></omm>
<omm id="CCSDS_OMM_VERS" version="2.0">
<header><CREATION_DATE/><ORIGINATOR/></header><body><segment><metadata><OBJECT_NAME>IRIDIUM 2 [-]</OBJECT_NAME><OBJECT_ID>1998-066A</OBJECT_ID><CENTER_NAME>EARTH</CENTER_NAME><REF_FRAME>TEME</REF_FRAME><TIME_SYSTEM>UTC</TIME_SYSTEM><MEAN_ELEMENT_THEORY>SGP4</MEAN_ELEMENT_THEORY></metadata><data><meanElements><EPOCH>2023-10-28T21:08:05.408160</EPOCH><MEAN_MOTION>15.43238442</MEAN_MOTION><ECCENTRICITY>.0005077</ECCENTRICITY><INCLINATION>85.5157</INCLINATION><RA_OF_ASC_NODE>90.0250</RA_OF_ASC_NODE><ARG_OF_PERICENTER>133.4039</ARG_OF_PERICENTER><MEAN_ANOMALY>226.7638</MEAN_ANOMALY></meanElements><tleParameters><EPHEMERIS_TYPE>0</EPHEMERIS_TYPE><CLASSIFICATION_TYPE>U</CLASSIFICATION_TYPE><NORAD_CAT_ID>25527</NORAD_CAT_ID><ELEMENT_SET_NO>999</ELEMENT_SET_NO><REV_AT_EPOCH>37172</REV_AT_EPOCH><BSTAR>.1203E-2</BSTAR><MEAN_MOTION_DOT>.53742E-3</MEAN_MOTION_DOT><MEAN_MOTION_DDOT>0</MEAN_MOTION_DDOT></tleParameters></data></segment></body></omm>
</ndm>
